[{"OBJECT_NAME":"STARLINK-35773","OBJECT_ID":"2025-294N","EPOCH":"2026-03-09T21:59:39.067296","MEAN_MOTION":15.27609709,"ECCENTRICITY":0.00011528,"INCLINATION":43.0016,"RA_OF_ASC_NODE":36.8141,"ARG_OF_PERICENTER":247.5495,"MEAN_ANOMALY":112.5235,"EPHEMERIS_TYPE":0,"CLASSIFICATION_TYPE":"U","NORAD_CAT_ID":67042,"ELEMENT_SET_NO":999,"REV_AT_EPOCH":1483,"BSTAR":0.0013692698,"MEAN_MOTION_DOT":0.00037644,"MEAN_MOTION_DDOT":0},{"OBJECT_NAME":"SL-3 DEB","OBJECT_ID":"1988-032D","EPOCH":"2026-03-09T21:36:49.536576","MEAN_MOTION":15.21301321,"ECCENTRICITY":0.00302448,"INCLINATION":97.5102,"RA_OF_ASC_NODE":52.3226,"ARG_OF_PERICENTER":221.5268,"MEAN_ANOMALY":138.367,"EPHEMERIS_TYPE":0,"CLASSIFICATION_TYPE":"U","NORAD_CAT_ID":25655,"ELEMENT_SET_NO":999,"REV_AT_EPOCH":5124,"BSTAR":0.00031081119,"MEAN_MOTION_DOT":6.967e-5,"MEAN_MOTION_DDOT":0}]
